NORAD_CAT_ID,OBJECT_NAME,OBJECT_TYPE,EPOCH,MEAN_MOTION,ECCENTRICITY,INCLINATION,RA_OF_ASC_NODE,ARG_OF_PERICENTER,MEAN_ANOMALY,BSTAR,MEAN_MOTION_DOT,MEAN_MOTION_DDOT,TLE_LINE0,TLE_LINE1,TLE_LINE2,SEMIMAJOR_AXIS,PERIOD,APOGEE,PERIGEE,DECAYED
55918.0,STARLINK-5867,PAYLOAD,2023-11-02 09:59:55,14.98335629,0.000286,69.9984,308.5698,266.9157,93.1674,0.00013248,1.488e-05,0.0,0 STARLINK-5867,1 55918U 23037E   23306.41660980  .00001488  00000-0  13248-3 0  9993,2 55918  69.9984 308.5698 0002860 266.9157  93.1674 14.98335629 34924,6950.175,96.107,574.028,570.053,0.0
55918.0,STARLINK-5867,PAYLOAD,2023-11-02 18:00:35,14.98339481,0.0002851,69.9982,307.7273,266.0469,94.0364,0.00015449,1.751e-05,0.0,0 STARLINK-5867,1 55918U 23037E   23306.75040532  .00001751  00000-0  15449-3 0  9993,2 55918  69.9982 307.7273 0002851 266.0469  94.0364 14.98339481 35319,6950.164,96.106,574.01,570.047,0.0
55918.0,STARLINK-5867,PAYLOAD,2023-11-03 10:01:55,14.98338272,0.0002697,69.9979,306.0445,269.0323,91.0527,0.00015606,1.77e-05,0.0,0 STARLINK-5867,1 55918U 23037E   23307.41800373  .00001770  00000-0  15606-3 0  9990,2 55918  69.9979 306.0445 0002697 269.0323  91.0527 14.98338272 35076,6950.167,96.106,573.907,570.158,0.0
55918.0,STARLINK-5867,PAYLOAD,2023-11-04 03:39:24,14.98328823,0.0002623,69.9995,304.1941,270.3828,89.7031,2.9157e-05,2.55e-06,0.0,0 STARLINK-5867,1 55918U 23037E   23308.15237247  .00000255  00000-0  29157-4 0  9990,2 55918  69.9995 304.1941 0002623 270.3828  89.7031 14.98328823 35523,6950.197,96.107,573.885,570.238,0.0
55918.0,STARLINK-5867,PAYLOAD,2023-11-04 10:03:57,14.98328979,0.0002783,69.9981,303.5198,266.4589,93.6252,-2.172e-05,-3.52e-06,0.0,0 STARLINK-5867,1 55918U 23037E   23308.41941289 -.00000352  00000-0 -21720-4 0  9995,2 55918  69.9981 303.5198 0002783 266.4589  93.6252 14.98328979 35220,6950.196,96.107,573.995,570.127,0.0
55918.0,STARLINK-5867,PAYLOAD,2023-11-04 16:28:29,14.98332166,0.000288,69.9979,302.8462,267.6408,92.4421,-4.218e-05,-5.96e-06,0.0,0 STARLINK-5867,1 55918U 23037E   23308.68645100 -.00000596  00000-0 -42180-4 0  9990,2 55918  69.9979 302.8462 0002880 267.6408  92.4421 14.98332166 35266,6950.186,96.107,574.053,570.05,0.0
55918.0,STARLINK-5867,PAYLOAD,2023-11-05 03:41:25,14.98332752,0.0002802,69.9982,301.6675,270.0932,89.9906,1.3514e-05,6.8e-07,0.0,0 STARLINK-5867,1 55918U 23037E   23309.15377005  .00000068  00000-0  13514-4 0  9990,2 55918  69.9982 301.6675 0002802 270.0932  89.9906 14.98332752 35672,6950.184,96.107,573.997,570.102,0.0
55918.0,STARLINK-5867,PAYLOAD,2023-11-05 10:05:57,14.9833675,0.0002697,69.9981,300.9944,269.9047,90.1803,0.00010311,1.138e-05,0.0,0 STARLINK-5867,1 55918U 23037E   23309.42080567  .00001138  00000-0  10311-3 0  9994,2 55918  69.9981 300.9944 0002697 269.9047  90.1803 14.98336750 35377,6950.172,96.107,573.911,570.163,0.0
55918.0,STARLINK-5867,PAYLOAD,2023-11-05 16:30:29,14.98340902,0.0002724,69.9983,300.3202,272.9639,87.1209,-4.6387e-05,-6.47e-06,0.0,0 STARLINK-5867,1 55918U 23037E   23309.68784491 -.00000647  00000-0 -46387-4 0  9998,2 55918  69.9983 300.3202 0002724 272.9639  87.1209 14.98340902 35417,6950.159,96.106,573.917,570.131,0.0
55918.0,STARLINK-5867,PAYLOAD,2023-11-06 03:43:26,14.98338406,0.0002776,69.9995,299.142,271.4168,88.6673,0.00032337,3.768e-05,0.0,0 STARLINK-5867,1 55918U 23037E   23310.15516550  .00003768  00000-0  32337-3 0  9995,2 55918  69.9995 299.1420 0002776 271.4168  88.6673 14.98338406 35827,6950.167,96.106,573.961,570.103,0.0
55918.0,STARLINK-5867,PAYLOAD,2023-11-06 10:07:58,14.98347328,0.0002579,69.9997,298.4691,265.2918,94.7946,0.0004656,5.469e-05,0.0,0 STARLINK-5867,1 55918U 23037E   23310.42219924  .00005469  00000-0  46560-3 0  9993,2 55918  69.9997 298.4691 0002579 265.2918  94.7946 14.98347328 35864,6950.139,96.106,573.797,570.212,0.0
55918.0,STARLINK-5867,PAYLOAD,2023-11-06 16:32:30,14.98333566,0.0002941,69.9999,297.795,266.4757,93.6065,-4.2097e-05,-5.95e-06,0.0,0 STARLINK-5867,1 55918U 23037E   23310.68924429 -.00000595  00000-0 -42097-4 0  9993,2 55918  69.9999 297.7950 0002941 266.4757  93.6065 14.98333566 35907,6950.182,96.107,574.091,570.003,0.0
55918.0,STARLINK-5867,PAYLOAD,2023-11-07 03:45:28,14.98307644,0.0002719,69.9994,296.6171,258.6118,101.4736,-0.00035368,-4.308e-05,0.0,0 STARLINK-5867,1 55918U 23037E   23311.15658312 -.00004308  00000-0 -35368-3 0  9999,2 55918  69.9994 296.6171 0002719 258.6118 101.4736 14.98307644 35970,6950.262,96.108,574.017,570.237,0.0
55918.0,STARLINK-5867,PAYLOAD,2023-11-07 08:33:53,14.98309672,0.000288,69.999,296.112,262.7076,97.3755,-0.00030276,-3.702e-05,0.0,0 STARLINK-5867,1 55918U 23037E   23311.35686471 -.00003702  00000-0 -30276-3 0  9998,2 55918  69.9990 296.1120 0002880 262.7076  97.3755 14.98309672 35666,6950.256,96.108,574.122,570.119,0.0
55918.0,STARLINK-5867,PAYLOAD,2023-11-07 16:34:33,14.9831307,0.0003065,69.9984,295.2699,259.806,100.2753,-0.00014479,-1.819e-05,0.0,0 STARLINK-5867,1 55918U 23037E   23311.69066580 -.00001819  00000-0 -14479-3 0  9992,2 55918  69.9984 295.2699 0003065 259.8060 100.2753 14.98313070 36059,6950.245,96.108,574.24,569.98,0.0
55918.0,STARLINK-5867,PAYLOAD,2023-11-08 08:35:54,14.98324113,0.0002809,69.9995,293.5889,263.8623,96.2216,5.9944e-05,6.22e-06,0.0,0 STARLINK-5867,1 55918U 23037E   23312.35826725  .00000622  00000-0  59944-4 0  9997,2 55918  69.9995 293.5889 0002809 263.8623  96.2216 14.98324113 36157,6950.211,96.107,574.028,570.124,0.0
55918.0,STARLINK-5867,PAYLOAD,2023-11-08 16:36:34,14.98332189,0.0002609,69.9999,292.7484,270.6226,89.4634,0.00024081,2.782e-05,0.0,0 STARLINK-5867,1 55918U 23037E   23312.69206586  .00002782  00000-0  24081-3 0  9993,2 55918  69.9999 292.7484 0002609 270.6226  89.4634 14.98332189 35863,6950.186,96.107,573.864,570.238,0.0
55918.0,STARLINK-5867,PAYLOAD,2023-11-09 08:37:54,14.98342405,0.0002829,69.999,291.0621,257.2676,102.8167,0.00081043,9.593e-05,0.0,0 STARLINK-5867,1 55918U 23037E   23313.35966344  .00009593  00000-0  81043-3 0  9990,2 55918  69.9990 291.0621 0002829 257.2676 102.8167 14.98342405 36306,6950.155,96.106,573.986,570.053,0.0
55918.0,STARLINK-5867,PAYLOAD,2023-11-09 23:03:07,14.98346927,0.0002417,70.0007,289.5499,269.9401,90.1482,0.0004041,4.734e-05,0.0,0 STARLINK-5867,1 55918U 23037E   23313.96049990  .00004734  00000-0  40410-3 0  9991,2 55918  70.0007 289.5499 0002417 269.9401  90.1482 14.98346927 36056,6950.141,96.106,573.685,570.326,0.0
55918.0,STARLINK-5867,PAYLOAD,2023-11-10 08:39:55,14.98342452,0.0002505,70.0002,288.5394,250.2966,109.7923,0.00050053,5.886e-05,0.0,0 STARLINK-5867,1 55918U 23037E   23314.36105830  .00005886  00000-0  50053-3 0  9995,2 55918  70.0002 288.5394 0002505 250.2966 109.7923 14.98342452 36451,6950.154,96.106,573.76,570.278,0.0
55918.0,STARLINK-5867,PAYLOAD,2023-11-10 15:04:26,14.98352026,0.0002064,70.0008,287.8658,259.0785,101.0142,-0.00032035,-3.915e-05,0.0,0 STARLINK-5867,1 55918U 23037E   23314.62808954 -.00003915  00000-0 -32035-3 0  9994,2 55918  70.0008 287.8658 0002064 259.0785 101.0142 14.98352026 36498,6950.125,96.106,573.424,570.555,0.0
55918.0,STARLINK-5867,PAYLOAD,2023-11-11 03:53:31,14.98337099,0.000218,70.0018,286.5199,243.9332,116.1603,-0.00016875,-2.106e-05,0.0,0 STARLINK-5867,1 55918U 23037E   23315.16217357 -.00002106  00000-0 -16875-3 0  9990,2 55918  70.0018 286.5199 0002180 243.9332 116.1603 14.98337099 36575,6950.171,96.107,573.551,570.521,0.0
55918.0,STARLINK-5867,PAYLOAD,2023-11-11 08:41:55,14.98348103,0.0002406,69.9998,286.0131,251.5179,108.5719,-0.00032406,-3.959e-05,0.0,0 STARLINK-5867,1 55918U 23037E   23315.36244540 -.00003959  00000-0 -32406-3 0  9991,2 55918  69.9998 286.0131 0002406 251.5179 108.5719 14.98348103 36600,6950.137,96.106,573.674,570.33,0.0
55918.0,STARLINK-5867,PAYLOAD,2023-11-11 15:06:28,14.98337633,0.0002213,70.001,285.3382,268.2733,91.8173,-7.1617e-05,-9.47e-06,0.0,0 STARLINK-5867,1 55918U 23037E   23315.62949156 -.00000947  00000-0 -71617-4 0  9997,2 55918  70.0010 285.3382 0002213 268.2733  91.8173 14.98337633 36643,6950.169,96.107,573.572,570.496,0.0
55918.0,STARLINK-5867,PAYLOAD,2023-11-11 21:31:01,14.98313075,0.0002081,70.0017,284.666,258.0887,102.0038,-0.00052509,-6.349e-05,0.0,0 STARLINK-5867,1 55918U 23037E   23315.89654172 -.00006349  00000-0 -52509-3 0  9997,2 55918  70.0017 284.6660 0002081 258.0887 102.0038 14.98313075 36347,6950.245,96.108,573.557,570.664,0.0
55918.0,STARLINK-5867,PAYLOAD,2023-11-12 03:55:28,14.98436212,0.0002471,70.0018,283.9922,254.3796,105.709,0.0019737,0.00023601,0.0,0 STARLINK-5867,1 55918U 23037E   23316.16352013  .00023601  00000-0  19737-2 0  9990,2 55918  70.0018 283.9922 0002471 254.3796 105.7090 14.98436212 36721,6949.864,96.1,573.447,570.012,0.0
55918.0,STARLINK-5867,PAYLOAD,2023-11-12 08:43:56,14.98339366,0.0002587,70.0,283.4866,264.739,95.3474,7.9162e-05,8.52e-06,0.0,0 STARLINK-5867,1 55918U 23037E   23316.36384718  .00000852  00000-0  79162-4 0  9992,2 55918  70.0000 283.4866 0002587 264.7390  95.3474 14.98339366 36752,6950.164,96.106,573.827,570.231,0.0
55918.0,STARLINK-5867,PAYLOAD,2023-11-12 13:32:20,14.98336535,0.0002711,70.0002,282.9814,269.3808,90.704,-3.2185e-05,-4.77e-06,0.0,0 STARLINK-5867,1 55918U 23037E   23316.56412792 -.00000477  00000-0 -32185-4 0  9997,2 55918  70.0002 282.9814 0002711 269.3808  90.7040 14.98336535 36444,6950.173,96.107,573.922,570.153,0.0
55918.0,STARLINK-5867,PAYLOAD,2023-11-12 21:33:01,14.98329434,0.0002722,70.0001,282.139,273.3849,86.6998,0.00011077,1.229e-05,0.0,0 STARLINK-5867,1 55918U 23037E   23316.89793155  .00001229  00000-0  11077-3 0  9998,2 55918  70.0001 282.1390 0002722 273.3849  86.6998 14.98329434 36497,6950.195,96.107,573.951,570.168,0.0
55918.0,STARLINK-5867,PAYLOAD,2023-11-13 03:57:33,14.9833154,0.0002618,69.9989,281.4679,263.0646,97.0215,0.00014786,1.672e-05,0.0,0 STARLINK-5867,1 55918U 23037E   23317.16497120  .00001672  00000-0  14786-3 0  9994,2 55918  69.9989 281.4679 0002618 263.0646  97.0215 14.98331540 36877,6950.188,96.107,573.873,570.234,0.0
